[{"OBJECT_NAME":"STARLINK-36674","OBJECT_ID":"2026-022P","EPOCH":"2026-03-09T15:31:54.749280","MEAN_MOTION":15.75156766,"ECCENTRICITY":0.0001193,"INCLINATION":97.2843,"RA_OF_ASC_NODE":102.6456,"ARG_OF_PERICENTER":48.8393,"MEAN_ANOMALY":311.2975,"EPHEMERIS_TYPE":0,"CLASSIFICATION_TYPE":"U","NORAD_CAT_ID":67661,"ELEMENT_SET_NO":999,"REV_AT_EPOCH":554,"BSTAR":0.0013615,"MEAN_MOTION_DOT":0.00207667,"MEAN_MOTION_DDOT":0},{"OBJECT_NAME":"AZUR (GRS A)","OBJECT_ID":"1969-097A","EPOCH":"2026-03-09T21:41:10.048992","MEAN_MOTION":15.2598686,"ECCENTRICITY":0.02451425,"INCLINATION":102.6572,"RA_OF_ASC_NODE":142.7505,"ARG_OF_PERICENTER":125.1196,"MEAN_ANOMALY":237.3267,"EPHEMERIS_TYPE":0,"CLASSIFICATION_TYPE":"U","NORAD_CAT_ID":4221,"ELEMENT_SET_NO":999,"REV_AT_EPOCH":71023,"BSTAR":0.0010311441,"MEAN_MOTION_DOT":0.00065195,"MEAN_MOTION_DDOT":0}]
